IRIDIUM 150             
1 43257U 18030J   25186.60790955  .00000024  00000+0  13397-5 0  9999
2 43257  86.3950  75.3631 0001971  79.6193 280.5224 14.34217631380480
IRIDIUM 143             
1 43258U 18030K   25186.24003876  .00000013  00000+0 -25576-5 0  9990
2 43258  86.3950  75.5960 0001680  76.1983 283.9400 14.34217485380361
IRIDIUM 161             
1 43478U 18047C   25186.58413170  .00000127  00000+0  31711-4 0  9993
2 43478  86.4481 233.2495 0002603  94.5910 265.5588 14.43279710375143
IRIDIUM 152             
1 43479U 18047D   25186.56160078  .00000049  00000+0  10500-4 0  9994
2 43479  86.3957 233.1199 0002446  91.6060 268.5416 14.34217797372811
IRIDIUM 147             
1 43480U 18047E   25186.56794301  .00000001  00000+0 -65291-5 0  9995
2 43480  86.3960 233.1160 0002217  96.6586 263.4862 14.34217428372808
IRIDIUM 110             
1 43481U 18047F   25186.57428644  .00000040  00000+0  70946-5 0  9996
2 43481  86.3959 233.1963 0002789  96.2905 263.8608 14.34217829372798
IRIDIUM 162             
1 43482U 18047G   25186.57782934  .00000114  00000+0  27871-4 0  9992
2 43482  86.4480 233.1471 0002736  91.2364 268.9150 14.43281140375135
IRIDIUM 160             
1 43569U 18061A   25186.58989065  .00000004  00000+0 -56003-5 0  9998
2 43569  86.3986 201.5952 0002411  92.5589 267.5882 14.34217424363696
